STARLINK-37555          
1 69431U 26126M   26185.86003800  .00300453  00000+0  19303-2 0  9999
2 69431  97.2852  46.7958 0001441 129.5176 230.6217 15.75367790  5587
STARLINK-37870          
1 69432U 26126N   26185.85650971  .00309131  00000+0  19842-2 0  9996
2 69432  97.2847  46.7999 0001376 130.4773 229.6612 15.75364831  5533
STARLINK-37872          
1 69433U 26126P   26185.91670139 -.00079848  00000+0 -54043-3 0  9996
2 69433  97.2845  46.9017 0001375  88.2225 339.0369 15.75149123  5558
STARLINK-37815          
1 69434U 26126Q   26185.89111410  .00304818  00000+0  19540-2 0  9994
2 69434  97.2824  46.7518 0002253  98.7502 261.4018 15.75406930  5539
STARLINK-37801          
1 69435U 26126R   26185.55934743  .00354642  00000+0  22640-2 0  9995
2 69435  97.2843  46.4401 0001302 120.4638 239.6756 15.75364700  5530
STARLINK-37800          
1 69436U 26126S   26185.56146827  .00364127  00000+0  23159-2 0  9990
2 69436  97.2861  46.4364 0001541 303.0977  57.0141 15.75425038  5485
STARLINK-37792          
1 69437U 26126T   26185.91670139 -.00171287  00000+0 -11699-2 0  9999
2 69437  97.2842  46.9158 0001536 104.7560 356.4888 15.75203931  5603
STARLINK-37783          
1 69438U 26126U   26185.33525722  .00391817  00000+0  24979-2 0  9999
2 69438  97.2829  46.2860 0003217  80.5008 279.6621 15.75293057  5506
STARLINK-37771          
1 69439U 26126V   26185.06948402  .00237691  00000+0  15436-2 0  9991
2 69439  97.2835  45.8802 0000760 284.2509  75.8671 15.75292600  5407
STARLINK-37747          
1 69440U 26126W   26185.86427184  .00259158  00000+0  16761-2 0  9994
2 69440  97.2842  46.7895 0004108  98.1660 262.0071 15.75323281  5537
STARLINK-37629          
1 69443U 26127A   26185.69041431  .00499836  00000+0  30520-2 0  9994
2 69443  53.1587 175.4245 0004614  74.6715 285.4815 15.75417840  4166
STARLINK-37509          
1 69444U 26127B   26185.93996580  .00286286  00000+0  18034-2 0  9995
2 69444  53.1597 174.1353 0001052 130.8635 229.2477 15.75312802  4200
STARLINK-37641          
1 69445U 26127C   26185.67225493  .00464748  00000+0  28533-2 0  9991
2 69445  53.1575 175.3028 0003063  79.1033 281.0332 15.75393799  4165
STARLINK-37522          
1 69446U 26127D   26185.36864015  .00251180  00000+0  15874-2 0  9995
2 69446  53.1605 176.9711 0001017  87.5772 272.5365 15.75341618  4115
STARLINK-37640          
1 69447U 26127E   26185.34141093  .00265436  00000+0  16742-2 0  9992
2 69447  53.1596 176.7895 0001345  89.9840 270.1335 15.75344661  4114
STARLINK-37572          
1 69448U 26127F   26185.67712480  .00404523  00000+0  25021-2 0  9995
2 69448  53.1596 175.3352 0004010  75.7564 284.3901 15.75390735  4160
STARLINK-37643          
1 69449U 26127G   26185.68165848  .00346118  00000+0  21592-2 0  9991
2 69449  53.1602 175.3655 0002755  77.8240 282.3089 15.75362693  4160
STARLINK-37601          
1 69450U 26127H   26185.68132928  .00368033  00000+0  22893-2 0  9991
2 69450  53.1605 175.3634 0002400  81.3858 278.7434 15.75367401  4169
STARLINK-37578          
1 69451U 26127J   26185.35048740  .00290007  00000+0  18226-2 0  9994
2 69451  53.1568 176.8477 0001326  52.5300 307.5841 15.75355350  4115
STARLINK-37577          
1 69452U 26127K   26185.33687080  .00288403  00000+0  18138-2 0  9998
2 69452  53.1595 176.7580 0001356  85.6137 274.5039 15.75343845  4116
STARLINK-37575          
1 69454U 26127M   26185.39610087  .00260937  00000+0  16461-2 0  9998
2 69454  53.1598 176.4157 0000325 106.8459 253.2598 15.75353134  4123
STARLINK-37642          
1 69455U 26127N   26185.35082512  .00360039  00000+0  22301-2 0  9995
2 69455  53.1566 176.8482 0002996  50.8374 309.2913 15.75486179  4112
STARLINK-37513          
1 69456U 26127P   26185.91670139  .00177931  00000+0  11450-2 0  9996
2 69456  53.1589 173.3975 0000366  48.5936 233.2472 15.75149917  5498
STARLINK-37563          
1 69457U 26127Q   26185.33719750  .00088575  00000+0  57461-3 0  9994
2 69457  53.1598 176.7594 0001381  93.3914 266.7264 15.75292568  4114
STARLINK-37565          
1 69458U 26127R   26185.39123065  .00357175  00000+0  22246-2 0  9996
2 69458  53.1585 176.3801 0002112 248.6253 111.4542 15.75368866  4123
STARLINK-37498          
1 69459U 26127S   26185.34594656  .00232278  00000+0  14713-2 0  9996
2 69459  53.1571 176.8149 0001086  65.7938 294.3195 15.75346132  4112
STARLINK-37384          
1 69460U 26127T   26185.39577551  .00249300  00000+0  15758-2 0  9992
2 69460  53.1598 176.4112 0001062  84.5222 275.5920 15.75343136  4127
STARLINK-37707          
1 69461U 26127U   26184.50332041  .00347899  00000+0  21633-2 0  9999
2 69461  53.1589 180.7952 0001649  68.8411 291.2786 15.75432955  3980
STARLINK-37525          
1 69462U 26127V   26185.70392778  .00417769  00000+0  25801-2 0  9991
2 69462  53.1580 174.7712 0003361  78.5944 281.5454 15.75389757  4178
