OBJECT_NAME,OBJECT_ID,EPOCH,MEAN_MOTION,ECCENTRICITY,INCLINATION,RA_OF_ASC_NODE,ARG_OF_PERICENTER,MEAN_ANOMALY,EPHEMERIS_TYPE,CLASSIFICATION_TYPE,NORAD_CAT_ID,ELEMENT_SET_NO,REV_AT_EPOCH,BSTAR,MEAN_MOTION_DOT,MEAN_MOTION_DDOT
STARLINK-37555,2026-126M,2026-07-04T20:38:27.283200,15.75367790,.00014414,97.2852,46.7958,129.5176,230.6217,0,U,69431,999,558,.19303077E-2,.300453E-2,0
STARLINK-37870,2026-126N,2026-07-04T20:33:22.438944,15.75364831,.00013763,97.2847,46.7999,130.4773,229.6612,0,U,69432,999,553,.19842459E-2,.309131E-2,0
STARLINK-37872,2026-126P,2026-07-04T22:00:03.000096,15.75149123,.0001375,97.2845,46.9017,88.2225,339.0369,0,U,69433,999,555,-.54042829E-3,-.79848E-3,0
STARLINK-37815,2026-126Q,2026-07-04T21:23:12.258240,15.75406930,.00022531,97.2824,46.7518,98.7502,261.4018,0,U,69434,999,553,.19540075E-2,.304818E-2,0
STARLINK-37801,2026-126R,2026-07-04T13:25:27.617952,15.75364700,.00013024,97.2843,46.4401,120.4638,239.6756,0,U,69435,999,553,.22640078E-2,.354642E-2,0
STARLINK-37800,2026-126S,2026-07-04T13:28:30.858528,15.75425038,.00015412,97.2861,46.4364,303.0977,57.0141,0,U,69436,999,548,.23158961E-2,.364127E-2,0
STARLINK-37792,2026-126T,2026-07-04T22:00:03.000096,15.75203931,.00015367,97.2842,46.9158,104.7560,356.4888,0,U,69437,999,560,-.11699027E-2,-.171287E-2,0
STARLINK-37783,2026-126U,2026-07-04T08:02:46.223808,15.75293057,.00032175,97.2829,46.2860,80.5008,279.6621,0,U,69438,999,550,.24979095E-2,.391817E-2,0
STARLINK-37771,2026-126V,2026-07-04T01:40:03.419328,15.75292600,.00007605,97.2835,45.8802,284.2509,75.8671,0,U,69439,999,540,.15436305E-2,.237691E-2,0
STARLINK-37747,2026-126W,2026-07-04T20:44:33.086976,15.75323281,.00041086,97.2842,46.7895,98.1660,262.0071,0,U,69440,999,553,.16761052E-2,.259158E-2,0
STARLINK-37629,2026-127A,2026-07-04T16:34:11.796384,15.75417840,.00046144,53.1587,175.4245,74.6715,285.4815,0,U,69443,999,416,.30520096E-2,.499836E-2,0
STARLINK-37509,2026-127B,2026-07-04T22:33:33.045120,15.75312802,.00010525,53.1597,174.1353,130.8635,229.2477,0,U,69444,999,420,.18034165E-2,.286286E-2,0
STARLINK-37641,2026-127C,2026-07-04T16:08:02.825952,15.75393799,.00030638,53.1575,175.3028,79.1033,281.0332,0,U,69445,999,416,.28532636E-2,.464748E-2,0
STARLINK-37522,2026-127D,2026-07-04T08:50:50.508960,15.75341618,.0001017,53.1605,176.9711,87.5772,272.5365,0,U,69446,999,411,.15874255E-2,.25118E-2,0
STARLINK-37640,2026-127E,2026-07-04T08:11:37.904352,15.75344661,.00013452,53.1596,176.7895,89.9840,270.1335,0,U,69447,999,411,.16742264E-2,.265436E-2,0
STARLINK-37572,2026-127F,2026-07-04T16:15:03.582720,15.75390735,.00040109,53.1596,175.3352,75.7564,284.3901,0,U,69448,999,416,.25021047E-2,.404523E-2,0
STARLINK-37643,2026-127G,2026-07-04T16:21:35.292672,15.75362693,.00027551,53.1602,175.3655,77.8240,282.3089,0,U,69449,999,416,.2159237E-2,.346118E-2,0
STARLINK-37601,2026-127H,2026-07-04T16:21:06.849792,15.75367401,.00024007,53.1605,175.3634,81.3858,278.7434,0,U,69450,999,416,.22892667E-2,.368033E-2,0
STARLINK-37578,2026-127J,2026-07-04T08:24:42.111360,15.75355350,.00013269,53.1568,176.8477,52.5300,307.5841,0,U,69451,999,411,.18226217E-2,.290007E-2,0
STARLINK-37577,2026-127K,2026-07-04T08:05:05.637120,15.75343845,.00013565,53.1595,176.7580,85.6137,274.5039,0,U,69452,999,411,.1813824E-2,.288403E-2,0
STARLINK-37575,2026-127M,2026-07-04T09:30:23.115168,15.75353134,.00003253,53.1598,176.4157,106.8459,253.2598,0,U,69454,999,412,.16461213E-2,.260937E-2,0
STARLINK-37642,2026-127N,2026-07-04T08:25:11.290368,15.75486179,.0002996,53.1566,176.8482,50.8374,309.2913,0,U,69455,999,411,.22301336E-2,.360039E-2,0
STARLINK-37513,2026-127P,2026-07-04T22:00:03.000096,15.75149917,.00003664,53.1589,173.3975,48.5936,233.2472,0,U,69456,999,549,.11450478E-2,.177931E-2,0
STARLINK-37563,2026-127Q,2026-07-04T08:05:33.864000,15.75292568,.0001381,53.1598,176.7594,93.3914,266.7264,0,U,69457,999,411,.57460714E-3,.88575E-3,0
STARLINK-37565,2026-127R,2026-07-04T09:23:22.328160,15.75368866,.00021125,53.1585,176.3801,248.6253,111.4542,0,U,69458,999,412,.22245902E-2,.357175E-2,0
STARLINK-37498,2026-127S,2026-07-04T08:18:09.782784,15.75346132,.00010865,53.1571,176.8149,65.7938,294.3195,0,U,69459,999,411,.14712966E-2,.232278E-2,0
STARLINK-37384,2026-127T,2026-07-04T09:29:55.004064,15.75343136,.00010624,53.1598,176.4112,84.5222,275.5920,0,U,69460,999,412,.15758223E-2,.2493E-2,0
STARLINK-37707,2026-127U,2026-07-03T12:04:46.883424,15.75432955,.000165,53.1589,180.7952,68.8411,291.2786,0,U,69461,999,398,.21633E-2,.347899E-2,0
STARLINK-37525,2026-127V,2026-07-04T16:53:39.360192,15.75389757,.00033615,53.1580,174.7712,78.5944,281.5454,0,U,69462,999,417,.25800888E-2,.417769E-2,0
